ALOS (DAICHI)           
1 28931U 06002A   26060.87825103  .00001671  00000+0  28843-3 0  9991
2 28931  98.1205  16.8737 0001238  51.4657 308.6660 14.69779356 72335
H-2A R/B                
1 28932U 06002B   26060.36032837  .00011351  00000+0  57137-3 0  9994
2 28932  98.2387 206.6702 0051980 269.7000  89.8274 15.16205144 93170
RESURS-DK 1             
1 29228U 06021A   26060.73267630  .00003040  00000+0  17944-3 0  9994
2 29228  69.9303 257.6072 0002546 166.2959 193.8276 15.12682430 86326
CZ-4B R/B               
1 29507U 06046C   26060.69308713  .00005349  00000+0  27228-3 0  9994
2 29507  97.5612 105.6233 0031846 296.4725  63.3242 15.16805114 58838
CZ-2C R/B               
1 31114U 07010B   26060.83546906  .00000139  00000+0  82977-4 0  9992
2 31114  98.3976 174.5082 0058122 317.8616  41.8101 14.20242937978600
COSMO-SKYMED 1          
1 31598U 07023A   26060.84138145  .00003662  00000+0  32788-3 0  9993
2 31598  97.8867 251.8113 0000876  84.4913 275.6407 14.96461762 13735
COSMOS 2428             
1 31792U 07029A   26060.81805737  .00000098  00000+0  78085-4 0  9991
2 31792  70.9418 219.8653 0008660 285.5367  74.4798 14.12943967962982
SL-16 R/B               
1 31793U 07029B   26060.80638832 -.00000213  00000+0 -85424-4 0  9997
2 31793  70.9755 188.9544 0002429 278.7766 243.1064 14.14834314964256
KORONAS-FOTON           
1 33504U 09003A   26060.65903266  .00012713  00000+0  28616-3 0  9997
2 33504  82.4288 284.2272 0010586 177.1414 182.9895 15.43091870944503
CZ-2C R/B               
1 37731U 11030B   26060.84173806  .00002071  00000+0  26669-3 0  9998
2 37731  97.8528  18.2630 0053181  17.5215  35.6995 14.81184752788934
H-2A R/B                
1 38341U 12025E   26060.83151721  .00004841  00000+0  43949-3 0  9999
2 38341  98.4706  27.2496 0044141 340.1862  19.7640 14.95082823747044
SHIJIAN-16 (SJ-16)      
1 39358U 13057A   26060.85240005  .00000902  00000+0  90989-4 0  9991
2 39358  74.9715 199.9234 0015874 132.8487 227.4038 14.92294183670336
